     2.11           N: GPS NAV DATA     G                   RINEX VERSION / TYPE
LEICA GEO OFFICE 8.4                    2-10-20 22:22       PGM / RUN BY / DATE
    18                                                      LEAP SECONDS
                                                            END OF HEADER
13 20 10  2  6  0  0.0 5.072588101029D-05 3.637978807092D-12 0.000000000000D+00
    8.500000000000D+01-2.575000000000D+01 4.050168644909D-09 4.017399183544D-01
   -1.387670636177D-06 4.591220640577D-03 1.172721385956D-05 5.153697935104D+03
    4.536000000000D+05-1.005828380585D-07 3.033700006559D+00 4.097819328308D-08
    9.684503070197D-01 1.588750000000D+02 1.047654375650D+00-7.816040259456D-09
   -1.810789712620D-10 1.000000000000D+00 2.125000000000D+03 0.000000000000D+00
    2.000000000000D+00 0.000000000000D+00-1.117587089539D-08 8.500000000000D+01
    4.536000000000D+05
13 20 10  2  8  0  0.0 5.075242370367D-05 3.637978807092D-12 0.000000000000D+00
    8.600000000000D+01-3.231250000000D+01 3.976594165067D-09 1.451610197963D+00
   -1.674517989159D-06 4.592633224092D-03 1.230463385582D-05 5.153701562881D+03
    4.608000000000D+05-5.587935447693D-08 3.033643953390D+00-4.284083843231D-08
    9.684486612369D-01 1.459062500000D+02 1.047944829257D+00-7.827469339361D-09
   -2.414386190974D-10 1.000000000000D+00 2.125000000000D+03 0.000000000000D+00
    2.000000000000D+00 0.000000000000D+00-1.117587089539D-08 8.600000000000D+01
    4.608000000000D+05
15 20 10  2  4  0  0.0-1.997887156904D-04 2.614797267597D-12 0.000000000000D+00
    2.600000000000D+01-5.021875000000D+01 5.096283839379D-09-8.827459667128D-01
   -2.378597855568D-06 1.285163813736D-02 9.922310709953D-06 5.153760412216D+03
    4.464000000000D+05 9.499490261078D-08 2.796181022197D+00 2.700835466385D-07
    9.288674742358D-01 1.694062500000D+02 9.268079518313D-01-8.438208354278D-09
   -2.839403989707D-10 1.000000000000D+00 2.125000000000D+03 0.000000000000D+00
    2.000000000000D+00 0.000000000000D+00-1.071020960808D-08 2.600000000000D+01
    4.464000000000D+05
15 20 10  2  6  0  0.0-1.997700892389D-04 2.614797267597D-12 0.000000000000D+00
    4.600000000000D+01-5.465625000000D+01 5.084140219935D-09 1.674013222856D-01
   -2.721324563026D-06 1.285119738895D-02 9.924173355103D-06 5.153759761810D+03
    4.536000000000D+05-1.154839992523D-07 2.796119973163D+00 2.402812242508D-07
    9.288652125645D-01 1.729062500000D+02 9.267924317334D-01-8.478210133944D-09
   -3.225134326268D-10 1.000000000000D+00 2.125000000000D+03 0.000000000000D+00
    2.000000000000D+00 0.000000000000D+00-1.071020960808D-08 4.600000000000D+01
    4.536000000000D+05
15 20 10  2  7 59 44.0-1.997528597713D-04 2.614797267597D-12 0.000000000000D+00
    4.000000000000D+00-6.362500000000D+01 5.061282060126D-09 1.215069858983D+00
   -3.203749656677D-06 1.285240717698D-02 1.079589128494D-05 5.153763576508D+03
    4.607840000000D+05-1.899898052216D-07 2.796060163220D+00-3.166496753693D-08
    9.288620073110D-01 1.599062500000D+02 9.269214786630D-01-8.454637878685D-09
   -5.232360655860D-10 1.000000000000D+00 2.125000000000D+03 0.000000000000D+00
    2.000000000000D+00 0.000000000000D+00-1.071020960808D-08 4.000000000000D+00
    4.607840000000D+05
15 20 10  2  8  0  0.0-1.997514627874D-04 2.614797267597D-12 0.000000000000D+00
    9.200000000000D+01-6.362500000000D+01 5.061282060126D-09 1.217403388869D+00
   -3.203749656677D-06 1.285240461584D-02 1.079589128494D-05 5.153763587952D+03
    4.608000000000D+05-1.899898052216D-07 2.796060041798D+00-3.166496753693D-08
    9.288620058481D-01 1.599062500000D+02 9.269215049955D-01-8.454637878685D-09
   -5.232360655860D-10 1.000000000000D+00 2.125000000000D+03 0.000000000000D+00
    2.000000000000D+00 0.000000000000D+00-1.071020960808D-08 9.200000000000D+01
    4.608000000000D+05
15 20 10  2  9 59 44.0-1.997342333198D-04 2.614797267597D-12 0.000000000000D+00
    8.000000000000D+00-6.868750000000D+01 4.996993929751D-09 2.265190438023D+00
   -3.706663846970D-06 1.285295526031D-02 1.086667180061D-05 5.153763608932D+03
    4.679840000000D+05-1.676380634308D-08 2.795999412621D+00-2.756714820862D-07
    9.288595159615D-01 1.533437500000D+02 9.269302342277D-01-8.200698786709D-09
   -4.521616969733D-10 1.000000000000D+00 2.125000000000D+03 0.000000000000D+00
    2.000000000000D+00 0.000000000000D+00-1.071020960808D-08 8.000000000000D+00
    4.679840000000D+05
18 20 10  2  4  0  0.0 3.002109006047D-04 6.366462912410D-12 0.000000000000D+00
    2.190000000000D+02 7.721875000000D+01 4.373039264038D-09-1.769953363971D+00
    3.956258296967D-06 1.078038709238D-03 8.378177881241D-06 5.153708938599D+03
    4.464000000000D+05-9.313225746155D-09 8.336014194394D-01 9.685754776001D-08
    9.652557020887D-01 2.214687500000D+02 2.781095299782D+00-7.996761475226D-09
    4.678766263311D-10 1.000000000000D+00 2.125000000000D+03 0.000000000000D+00
    2.000000000000D+00 0.000000000000D+00-8.381903171539D-09 7.310000000000D+02
    4.464000000000D+05
18 20 10  2  6  0  0.0 3.002565354109D-04 6.366462912410D-12 0.000000000000D+00
    2.200000000000D+02 7.209375000000D+01 4.382682661230D-09-7.198750720405D-01
    3.688037395477D-06 1.078373868950D-03 8.469447493553D-06 5.153708988190D+03
    4.536000000000D+05-3.911554813385D-08 8.335445806833D-01-5.960464477539D-08
    9.652586059811D-01 2.209375000000D+02 2.781175374066D+00-7.987832617573D-09
    3.375140722461D-10 1.000000000000D+00 2.125000000000D+03 0.000000000000D+00
    2.800000000000D+00 0.000000000000D+00-8.381903171539D-09 7.320000000000D+02
    4.536000000000D+05
18 20 10  2  6 29 36.0 3.002686426044D-04 6.366462912410D-12 0.000000000000D+00
    2.210000000000D+02 6.796875000000D+01 4.383039708955D-09-4.605596498952D-01
    3.444030880928D-06 1.078819856048D-03 8.553266525269D-06 5.153709960937D+03
    4.553760000000D+05-5.587935447693D-09 8.335304796159D-01-4.842877388000D-08
    9.652591487237D-01 2.195312500000D+02 2.780898957158D+00-8.002118967454D-09
    3.214419563857D-10 1.000000000000D+00 2.125000000000D+03 0.000000000000D+00
    2.000000000000D+00 0.000000000000D+00-8.381903171539D-09 7.330000000000D+02
    4.553760000000D+05
18 20 10  2  8  0  0.0 3.003031015396D-04 6.366462912410D-12 0.000000000000D+00
    2.220000000000D+02 6.446875000000D+01 4.428398536760D-09 3.306996333443D-01
    3.131106495857D-06 1.079206820577D-03 8.387491106987D-06 5.153710697174D+03
    4.608000000000D+05-9.313225746155D-09 8.334870821511D-01-1.676380634308D-08
    9.652607637853D-01 2.200312500000D+02 2.780758256623D+00-8.025691222713D-09
    3.110843804777D-10 1.000000000000D+00 2.125000000000D+03 0.000000000000D+00
    2.000000000000D+00 0.000000000000D+00-8.381903171539D-09 7.340000000000D+02
    4.608000000000D+05
18 20 10  2 10  0  0.0 3.003492020071D-04 6.366462912410D-12 0.000000000000D+00
    2.230000000000D+02 6.543750000000D+01 4.563761368814D-09 1.380823678037D+00
    3.453344106674D-06 1.078902278095D-03 8.394941687584D-06 5.153710380554D+03
    4.680000000000D+05 2.793967723846D-08 8.334287000164D-01-1.210719347000D-07
    9.652628133335D-01 2.161250000000D+02 2.780792935096D+00-8.111052274273D-09
    3.614436250299D-10 1.000000000000D+00 2.125000000000D+03 0.000000000000D+00
    2.000000000000D+00 0.000000000000D+00-8.381903171539D-09 7.350000000000D+02
    4.680000000000D+05
19 20 10  2  4  0  0.0-9.730784222484D-05 5.002220859751D-12 0.000000000000D+00
    8.100000000000D+01-4.828125000000D+01 3.865161080085D-09 2.484849046154D+00
   -2.413988113403D-06 9.187908144668D-03 1.139007508755D-05 5.153705535889D+03
    4.464000000000D+05 1.285225152969D-07-1.325624826738D-01-5.401670932770D-08
    9.821311160575D-01 1.680625000000D+02 1.728149014012D+00-7.517098943310D-09
   -3.571577478212D-10 1.000000000000D+00 2.125000000000D+03 0.000000000000D+00
    2.000000000000D+00 0.000000000000D+00-1.536682248116D-08 8.100000000000D+01
    4.464000000000D+05
20 20 10  2  6  0  0.0 5.265399813652D-04-1.136868377216D-13 0.000000000000D+00
    9.200000000000D+01-7.687500000000D+00 5.408082426328D-09-1.623148838367D+00
   -3.613531589508D-07 5.683518131264D-03 3.067776560783D-06 5.153655344009D+03
    4.536000000000D+05-6.705522537231D-08 1.720070489257D+00-3.539025783539D-08
    9.349700516327D-01 3.082812500000D+02 2.718853232316D+00-8.694290620781D-09
    1.642925552547D-11 1.000000000000D+00 2.125000000000D+03 0.000000000000D+00
    2.000000000000D+00 0.000000000000D+00-8.847564458847D-09 9.200000000000D+01
    4.536000000000D+05
20 20 10  2  7 59 44.0 5.265413783491D-04-1.136868377216D-13 0.000000000000D+00
    7.000000000000D+00-5.968750000000D+00 5.467727604014D-09-5.753175227755D-01
   -3.371387720108D-07 5.683302064426D-03 3.110617399216D-06 5.153654829025D+03
    4.607840000000D+05 2.793967723846D-08 1.720008607822D+00-1.750886440277D-07
    9.349697736782D-01 3.100312500000D+02 2.718886481518D+00-8.723934463717D-09
   -1.071473187952D-10 1.000000000000D+00 2.125000000000D+03 0.000000000000D+00
    2.000000000000D+00 0.000000000000D+00-8.847564458847D-09 7.000000000000D+00
    4.607840000000D+05
20 20 10  2  8  0  0.0 5.265385843813D-04-1.136868377216D-13 0.000000000000D+00
    9.300000000000D+01-5.968750000000D+00 5.467727604014D-09-5.729837339524D-01
   -3.371387720108D-07 5.683302530088D-03 3.110617399216D-06 5.153654832840D+03
    4.608000000000D+05 2.793967723846D-08 1.720008473234D+00-1.750886440277D-07
    9.349697853816D-01 3.100312500000D+02 2.718886436168D+00-8.723934463717D-09
   -1.071473187952D-10 1.000000000000D+00 2.125000000000D+03 0.000000000000D+00
    2.000000000000D+00 0.000000000000D+00-8.847564458847D-09 9.300000000000D+01
    4.608000000000D+05
